{"spkid": "50263471", "covariance": {"labels": ["e", "q", "tp", "node", "peri", "i"], "elements": [{"sigma": 2.21037442966404e-07, "name": "e", "units": null, "title": "eccentricity", "value": ".4338825991066765", "label": "e"}, {"value": ".4237912439604201", "title": "perihelion distance", "units": "au", "sigma": 1.65412677223184e-07, "name": "q", "label": "q"}, {"units": "TDB", "title": "time of perihelion passage", "value": "2456059.343570979731", "sigma": 6.04592387659403e-05, "name": "tp", "label": "tp"}, {"label": "node", "name": "om", "sigma": 0.000306453632720376, "units": "deg", "title": "longitude of the ascending node", "value": "307.1071117388104"}, {"label": "peri", "name": "w", "sigma": 0.000282791856913952, "title": "argument of perihelion", "value": "302.9022865985412", "units": "deg"}, {"label": "i", "title": "inclination", "value": "3.097472324507612", "units": "deg", "sigma": 1.43448862395125e-05, "name": "i"}], "data": [["4.885755119312646E-14", "-3.656210616978297E-14", "-6.18667311449586E-12", "-2.562517912214964E-11", "2.17410283916973E-11", "2.104808021104709E-12"], ["-3.656210616978297E-14", "2.736135378614131E-14", "4.60909875048944E-12", "1.909756498525032E-11", "-1.620397534200906E-11", "-1.572492310452415E-12"], ["-6.18667311449586E-12", "4.60909875048944E-12", "3.655319552156981E-9", "1.240753421422265E-8", "-1.012915654296187E-8", "-6.03047613313142E-10"], ["-2.562517912214964E-11", "1.909756498525032E-11", "1.240753421422265E-8", "9.39138290075154E-8", "-8.622924756085209E-8", "-4.03509883364136E-9"], ["2.17410283916973E-11", "-1.620397534200906E-11", "-1.012915654296187E-8", "-8.622924756085209E-8", "7.997123433684126E-8", "3.660840411234984E-9"], ["2.104808021104709E-12", "-1.572492310452415E-12", "-6.03047613313142E-10", "-4.03509883364136E-9", "3.660840411234984E-9", "2.057757612245551E-10"]], "epoch": "2456073.5"}, "elements": [{"units": null, "value": ".4338560046810356", "title": "eccentricity", "name": "e", "sigma": "2.2052E-7", "label": "e"}, {"label": "a", "name": "a", "sigma": "2.8091E-9", "units": "au", "value": ".7485377666356943", "title": "semi-major axis"}, {"label": "q", "name": "q", "sigma": "1.6469E-7", "title": "perihelion distance", "value": ".4237801618502666", "units": "au"}, {"label": "i", "units": "deg", "title": "inclination; angle with respect to x-y ecliptic plane", "value": "3.097206442928242", "name": "i", "sigma": "1.4411E-5"}, {"label": "node", "units": "deg", "value": "306.7853763391395", "title": "longitude of the ascending node", "name": "om", "sigma": ".00030518"}, {"value": "303.2125135036437", "title": "argument of perihelion", "units": "deg", "sigma": ".00028163", "name": "w", "label": "peri"}, {"label": "M", "units": "deg", "value": "264.1867579604254", "title": "mean anomaly", "sigma": "6.2689E-5", "name": "ma"}, {"title": "time of perihelion passage", "value": "2461263.456711863796", "units": "TDB", "sigma": "4.0879E-5", "name": "tp", "label": "tp"}, {"name": "per", "sigma": "1.3316E-6", "units": "d", "title": "sidereal orbital period", "value": "236.5478485907556", "label": "period"}, {"units": "deg/d", "title": "mean motion", "value": "1.521890823124015", "sigma": "8.5671E-9", "name": "n", "label": "n"}, {"value": "1.073295371421122", "title": "aphelion distance", "units": "au", "name": "ad", "sigma": "4.0279E-9", "label": "Q"}], "epoch": "2461200.5"}